{
  "norad_id": 51725,
  "name": "STARLINK-3522",
  "history": [
    {
      "epoch": "2026-03-28T17:28:49.296576",
      "apogee_km": 540.6750239608282,
      "perigee_km": 538.8514654563232,
      "latitude_deg": -21.86873614038007,
      "longitude_deg": 142.42144063999876,
      "semi_major_axis_km": 6917.900244708576,
      "eccentricity": 0.0001318,
      "inclination_deg": 53.2176,
      "raan_deg": 243.6517,
      "arg_perigee_deg": 93.4508,
      "mean_anomaly_deg": 266.6635,
      "mean_motion_rev_day": 15.08833504
    }
  ]
}