{"fetched_at":"2026-03-30T09:12:31Z","count":15922,"tles":[{"name":"STARLINK-3522","line1":"1 51725U 22016M   26087.72834834  .00000118  00000+0  25492-4 0  9998","line2":"2 51725  53.2176 243.6517 0001318  93.4508 266.6635 15.08833504226298","category":"Starlink"}]}